OBJECT_NAME,OBJECT_ID,EPOCH,MEAN_MOTION,ECCENTRICITY,INCLINATION,RA_OF_ASC_NODE,ARG_OF_PERICENTER,MEAN_ANOMALY,EPHEMERIS_TYPE,CLASSIFICATION_TYPE,NORAD_CAT_ID,ELEMENT_SET_NO,REV_AT_EPOCH,BSTAR,MEAN_MOTION_DOT,MEAN_MOTION_DDOT
POLYITAN-1,2014-033AJ,2026-07-14T01:29:52.393344,15.34193995,.0007966,98.0935,223.8837,67.7667,292.4418,0,U,40042,999,65771,.34297E-3,.11275E-3,0
TIGRISAT,2014-033AK,2026-07-13T15:50:50.074656,14.85246908,.004875,97.7861,344.0710,349.4137,10.6048,0,U,40043,999,64955,.97538E-4,.798E-5,0
AEROCUBE 6A,2014-033AM,2026-07-14T00:07:56.620416,14.98336119,.0036407,97.7241,1.6748,285.1052,74.6144,0,U,40045,999,65063,.26795E-3,.3173E-4,0
AEROCUBE 6B,2014-033AN,2026-07-13T23:33:42.753312,14.99791886,.0038018,97.7196,1.4967,274.3605,85.3274,0,U,40046,999,65077,.21916E-3,.2689E-4,0
CANX-4,2014-034C,2026-07-14T04:07:12.643104,14.81310223,.0011444,98.3085,71.4711,286.5619,73.4335,0,U,40055,999,64852,.65732E-4,.456E-5,0
CANX-5,2014-034D,2026-07-14T02:27:13.916160,14.81327483,.0011445,98.3087,71.4444,287.0041,72.9916,0,U,40056,999,63932,.64807E-4,.449E-5,0
UKUBE-1,2014-037F,2026-07-14T00:08:02.831712,15.13940085,.0003332,98.4242,201.1037,90.1501,270.0109,0,U,40074,999,65261,.24579E-3,.4376E-4,0
BRITE-PL2 (HEWELIUSZ),2014-049B,2026-07-13T18:00:24.384672,14.94684980,.001448,97.9120,306.9592,26.9813,333.2156,0,U,40119,999,64541,.65131E-4,.648E-5,0
AEROCUBE 5C,2015-058B,2026-07-14T04:36:36.707328,14.91572274,.013227,64.7652,178.5702,52.8081,308.5019,0,U,40965,999,36968,.16166E-3,.1741E-4,0
AEROCUBE 7,2015-058C,2026-07-14T04:15:49.315968,14.95907774,.0121977,64.7610,160.2633,51.1415,310.0507,0,U,40966,999,36999,.23077E-3,.2824E-4,0
FOX-1A (AO-85),2015-058D,2026-07-14T04:21:11.801376,14.91084963,.0132264,64.7724,195.0853,46.1915,315.0044,0,U,40967,999,11759,.16126E-3,.1712E-4,0
SINOD-D 1,2015-058E,2026-07-14T02:03:12.529152,14.96081529,.0120966,64.7733,174.6652,42.5767,318.4648,0,U,40968,999,12068,.23189E-3,.2845E-4,0
SNAP-3 ALICE,2015-058G,2026-07-14T02:25:39.525888,15.67011491,.0024487,64.7492,10.4115,349.0735,10.9879,0,U,40970,999,12109,.90315E-3,.99199E-3,0
LMRST-SAT,2015-058H,2026-07-14T03:26:49.392672,14.90699621,.0133815,64.7731,191.5923,48.2110,313.0343,0,U,40971,999,11757,.15253E-3,.1598E-4,0
SNAP-3 EDDIE,2015-058J,2026-07-13T21:04:52.716288,15.68332074,.0025223,64.7400,1.7103,351.6214,8.4511,0,U,40972,999,12320,.8661E-3,.100523E-2,0
PROPCUBE 3,2015-058K,2026-07-14T01:05:56.746752,14.94410288,.0125669,64.7668,168.6087,49.4374,311.7598,0,U,40973,999,11881,.20161E-3,.2363E-4,0
BISONSAT,2015-058L,2026-07-14T03:15:38.315232,15.16915005,.008198,64.7585,86.4661,36.3271,324.3379,0,U,40974,999,11970,.42414E-3,.8955E-4,0
SNAP-3 JIMI,2015-058M,2026-07-13T22:44:12.380064,15.02598252,.0107762,64.7645,135.0853,44.7945,316.1809,0,U,40975,999,11824,.31128E-3,.4527E-4,0
PROPCUBE 1 (FLORA),2015-058N,2026-07-14T04:34:16.950144,14.89324813,.0132401,64.7718,211.5379,50.4745,310.7980,0,U,40976,999,12028,.12777E-3,.1252E-4,0
SINOD-D 3,2015-058P,2026-07-14T03:34:08.006592,14.94168720,.0120959,64.7700,191.6153,47.5429,313.5834,0,U,40977,999,11878,.19757E-3,.2269E-4,0
RAVAN,2016-067B,2026-07-14T04:21:21.213792,15.57392674,.0002066,97.9844,87.9246,222.6409,137.4685,0,U,41849,999,53189,.53513E-3,.39205E-3,0
CELTEE 1,2016-067C,2026-07-14T01:39:56.526336,15.19934454,.000232,98.0638,63.4700,111.5223,248.6258,0,U,41850,999,52996,.14097E-3,.2952E-4,0
OPTICUBE 04,2016-067D,2026-07-14T02:54:09.794016,15.09769631,.0016242,98.0674,48.8081,31.3843,328.8351,0,U,41851,999,52923,.74804E-4,.1139E-4,0
AEROCUBE 8D,2016-067E,2026-07-14T03:08:18.229920,15.24760938,.000465,98.0656,67.3560,61.7187,298.4518,0,U,41852,999,53017,.18312E-3,.4455E-4,0
AEROCUBE 8C,2016-067F,2026-07-13T15:01:59.046240,15.25010493,.0004471,98.0521,64.0049,347.6980,12.4146,0,U,41853,999,53009,.17185E-3,.4207E-4,0
CORVUS BC2,2017-042X,2026-07-13T21:33:25.678368,15.06453080,.001357,97.4090,355.2157,27.3909,332.8031,0,U,42846,999,49108,.96681E-4,.1369E-4,0
CORVUS BC1,2017-042Y,2026-07-14T00:32:42.234720,15.06616398,.0011709,97.4115,356.1666,4.6005,355.5328,0,U,42847,999,49113,.75375E-4,.1058E-4,0
MAKERSAT 0,2017-073D,2026-07-13T14:58:38.311392,15.32968226,.0105364,97.4590,77.3600,177.8429,182.3290,0,U,43016,999,47051,.32412E-3,.12247E-3,0
SIRION PATHFINDER-2,2018-099B,2026-07-14T01:40:03.611136,15.14772649,.0008362,97.4241,243.4895,195.5373,164.5604,0,U,43759,999,41669,.13986E-3,.2531E-4,0
CORVUS BC4,2018-099K,2026-07-14T02:42:17.608320,15.12697854,.0006505,97.4054,237.3058,265.4491,94.5998,0,U,43767,999,41647,.13347E-3,.2273E-4,0
M2 PATHFINDER,2020-037E,2026-07-14T01:05:08.850048,15.04789604,.0013021,97.8144,26.5807,66.0350,294.2237,0,U,45727,999,32953,.57894E-4,.754E-5,0
