POLYITAN-1              
1 40042U 14033AJ  26195.06241196  .00011275  00000+0  34297-3 0  9996
2 40042  98.0935 223.8837 0007966  67.7667 292.4418 15.34193995657711
TIGRISAT                
1 40043U 14033AK  26194.66030179  .00000798  00000+0  97538-4 0  9995
2 40043  97.7861 344.0710 0048750 349.4137  10.6048 14.85246908649550
AEROCUBE 6A             
1 40045U 14033AM  26195.00551644  .00003173  00000+0  26795-3 0  9997
2 40045  97.7241   1.6748 0036407 285.1052  74.6144 14.98336119650635
AEROCUBE 6B             
1 40046U 14033AN  26194.98174483  .00002689  00000+0  21916-3 0  9997
2 40046  97.7196   1.4967 0038018 274.3605  85.3274 14.99791886650775
CANX-4                  
1 40055U 14034C   26195.17167411  .00000456  00000+0  65732-4 0  9998
2 40055  98.3085  71.4711 0011444 286.5619  73.4335 14.81310223648526
CANX-5                  
1 40056U 14034D   26195.10224440  .00000449  00000+0  64807-4 0  9992
2 40056  98.3087  71.4444 0011445 287.0041  72.9916 14.81327483639321
UKUBE-1                 
1 40074U 14037F   26195.00558833  .00004376  00000+0  24579-3 0  9994
2 40074  98.4242 201.1037 0003332  90.1501 270.0109 15.13940085652612
BRITE-PL2 (HEWELIUSZ)   
1 40119U 14049B   26194.75028223  .00000648  00000+0  65131-4 0  9991
2 40119  97.9120 306.9592 0014480  26.9813 333.2156 14.94684980645411
AEROCUBE 5C             
1 40965U 15058B   26195.19209152  .00001741  00000+0  16166-3 0  9990
2 40965  64.7652 178.5702 0132270  52.8081 308.5019 14.91572274369685
AEROCUBE 7              
1 40966U 15058C   26195.17765412  .00002824  00000+0  23077-3 0  9997
2 40966  64.7610 160.2633 0121977  51.1415 310.0507 14.95907774369991
FOX-1A (AO-85)          
1 40967U 15058D   26195.18138659  .00001712  00000+0  16126-3 0  9998
2 40967  64.7724 195.0853 0132264  46.1915 315.0044 14.91084963117598
SINOD-D 1               
1 40968U 15058E   26195.08556168  .00002845  00000+0  23189-3 0  9992
2 40968  64.7733 174.6652 0120966  42.5767 318.4648 14.96081529120681
SNAP-3 ALICE            
1 40970U 15058G   26195.10115192  .00099199  00000+0  90315-3 0  9999
2 40970  64.7492  10.4115 0024487 349.0735  10.9879 15.67011491121094
LMRST-SAT               
1 40971U 15058H   26195.14362723  .00001598  00000+0  15253-3 0  9992
2 40971  64.7731 191.5923 0133815  48.2110 313.0343 14.90699621117573
SNAP-3 EDDIE            
1 40972U 15058J   26194.87838792  .00100523  00000+0  86610-3 0  9999
2 40972  64.7400   1.7103 0025223 351.6214   8.4511 15.68332074123209
PROPCUBE 3              
1 40973U 15058K   26195.04579568  .00002363  00000+0  20161-3 0  9995
2 40973  64.7668 168.6087 0125669  49.4374 311.7598 14.94410288118812
BISONSAT                
1 40974U 15058L   26195.13586013  .00008955  00000+0  42414-3 0  9997
2 40974  64.7585  86.4661 0081980  36.3271 324.3379 15.16915005119702
SNAP-3 JIMI             
1 40975U 15058M   26194.94736551  .00004527  00000+0  31128-3 0  9991
2 40975  64.7645 135.0853 0107762  44.7945 316.1809 15.02598252118243
PROPCUBE 1 (FLORA)      
1 40976U 15058N   26195.19047396  .00001252  00000+0  12777-3 0  9993
2 40976  64.7718 211.5379 0132401  50.4745 310.7980 14.89324813120289
SINOD-D 3               
1 40977U 15058P   26195.14870378  .00002269  00000+0  19757-3 0  9997
2 40977  64.7700 191.6153 0120959  47.5429 313.5834 14.94168720118780
RAVAN                   
1 41849U 16067B   26195.18149553  .00039205  00000+0  53513-3 0  9993
2 41849  97.9844  87.9246 0002066 222.6409 137.4685 15.57392674531893
CELTEE 1                
1 41850U 16067C   26195.06940424  .00002952  00000+0  14097-3 0  9991
2 41850  98.0638  63.4700 0002320 111.5223 248.6258 15.19934454529967
OPTICUBE 04             
1 41851U 16067D   26195.12094669  .00001139  00000+0  74804-4 0  9999
2 41851  98.0674  48.8081 0016242  31.3843 328.8351 15.09769631529239
AEROCUBE 8D             
1 41852U 16067E   26195.13076655  .00004455  00000+0  18312-3 0  9991
2 41852  98.0656  67.3560 0004650  61.7187 298.4518 15.24760938530176
AEROCUBE 8C             
1 41853U 16067F   26194.62637785  .00004207  00000+0  17185-3 0  9994
2 41853  98.0521  64.0049 0004471 347.6980  12.4146 15.25010493530099
CORVUS BC2              
1 42846U 17042X   26194.89821387  .00001369  00000+0  96681-4 0  9998
2 42846  97.4090 355.2157 0013570  27.3909 332.8031 15.06453080491083
CORVUS BC1              
1 42847U 17042Y   26195.02271105  .00001058  00000+0  75375-4 0  9994
2 42847  97.4115 356.1666 0011709   4.6005 355.5328 15.06616398491134
MAKERSAT 0              
1 43016U 17073D   26194.62405453  .00012247  00000+0  32412-3 0  9993
2 43016  97.4590  77.3600 0105364 177.8429 182.3290 15.32968226470516
SIRION PATHFINDER-2     
1 43759U 18099B   26195.06948624  .00002531  00000+0  13986-3 0  9997
2 43759  97.4241 243.4895 0008362 195.5373 164.5604 15.14772649416692
CORVUS BC4              
1 43767U 18099K   26195.11270380  .00002273  00000+0  13347-3 0  9993
2 43767  97.4054 237.3058 0006505 265.4491  94.5998 15.12697854416477
M2 PATHFINDER           
1 45727U 20037E   26195.04524132  .00000754  00000+0  57894-4 0  9993
2 45727  97.8144  26.5807 0013021  66.0350 294.2237 15.04789604329530
